NORAD_CAT_ID,OBJECT_NAME,OBJECT_TYPE,EPOCH,MEAN_MOTION,ECCENTRICITY,INCLINATION,RA_OF_ASC_NODE,ARG_OF_PERICENTER,MEAN_ANOMALY,BSTAR,MEAN_MOTION_DOT,MEAN_MOTION_DDOT,TLE_LINE0,TLE_LINE1,TLE_LINE2,SEMIMAJOR_AXIS,PERIOD,APOGEE,PERIGEE,DECAYED
55955.0,STARLINK-5878,PAYLOAD,2023-06-23 15:41:39,15.69926507,0.000387,69.9965,265.8427,272.6287,87.4466,5.5088e-06,4.49e-06,0.0,0 STARLINK-5878,1 55955U 23037AT  23174.65393229  .00000449  00000-0  55088-5 0  9998,2 55955  69.9965 265.8427 0003870 272.6287  87.4466 15.69926507 15899,6737.244,91.724,361.717,356.502,0.0
55955.0,STARLINK-5878,PAYLOAD,2023-06-24 14:37:55,15.69936307,0.0003915,69.9965,263.1571,276.9655,83.1096,7.4242e-06,6.8e-06,0.0,0 STARLINK-5878,1 55955U 23037AT  23175.60967587  .00000680  00000-0  74242-5 0  9998,2 55955  69.9965 263.1571 0003915 276.9655  83.1096 15.69936307 16045,6737.216,91.723,361.719,356.444,0.0
55955.0,STARLINK-5878,PAYLOAD,2023-06-25 08:58:58,15.69918005,0.0002724,69.9996,261.0104,253.9273,106.1622,1.4029e-05,1.474e-05,0.0,0 STARLINK-5878,1 55955U 23037AT  23176.37428923  .00001474  00000-0  14029-4 0  9997,2 55955  69.9996 261.0104 0002724 253.9273 106.1622 15.69918005 16165,6737.269,91.725,360.969,357.298,0.0
55955.0,STARLINK-5878,PAYLOAD,2023-06-25 15:05:58,15.69929069,0.0003357,69.9977,260.2916,269.4497,90.6314,1.1669e-05,1.191e-05,0.0,0 STARLINK-5878,1 55955U 23037AT  23176.62914983  .00001191  00000-0  11669-4 0  9994,2 55955  69.9977 260.2916 0003357 269.4497  90.6314 15.69929069 16201,6737.237,91.724,361.364,356.84,0.0
55955.0,STARLINK-5878,PAYLOAD,2023-06-25 22:44:45,15.69906733,0.0003049,69.998,259.3957,270.0769,90.0078,1.6892e-05,1.817e-05,0.0,0 STARLINK-5878,1 55955U 23037AT  23176.94774819  .00001817  00000-0  16892-4 0  9999,2 55955  69.9980 259.3957 0003049 270.0769  90.0078 15.69906733 16256,6737.301,91.725,361.22,357.112,0.0
55955.0,STARLINK-5878,PAYLOAD,2023-06-26 07:55:15,15.6992307,0.0002847,69.999,258.3207,262.9515,97.1357,-8.8987e-06,-1.282e-05,0.0,0 STARLINK-5878,1 55955U 23037AT  23177.33004408 -.00001282  00000-0 -88987-5 0  9996,2 55955  69.9990 258.3207 0002847 262.9515  97.1357 15.69923070 16316,6737.254,91.724,361.037,357.201,0.0
55955.0,STARLINK-5878,PAYLOAD,2023-06-26 15:34:00,15.69925523,0.0002856,69.9973,257.4249,262.9398,97.1473,3.8727e-06,2.53e-06,0.0,0 STARLINK-5878,1 55955U 23037AT  23177.64862258  .00000253  00000-0  38727-5 0  9997,2 55955  69.9973 257.4249 0002856 262.9398  97.1473 15.69925523 16361,6737.247,91.724,361.036,357.188,0.0
55955.0,STARLINK-5878,PAYLOAD,2023-06-27 22:09:01,15.69942816,0.0003306,69.9977,253.8429,267.9115,92.1702,2.5155e-05,2.815e-05,0.0,0 STARLINK-5878,1 55955U 23037AT  23178.92293819  .00002815  00000-0  25155-4 0  9996,2 55955  69.9977 253.8429 0003306 267.9115  92.1702 15.69942816 16564,6737.198,91.723,361.29,356.835,0.0
55955.0,STARLINK-5878,PAYLOAD,2023-06-28 07:19:36,15.69888837,0.0003232,69.9982,252.7694,267.5467,92.5358,-2.2911e-05,-2.962e-05,0.0,0 STARLINK-5878,1 55955U 23037AT  23179.30528578 -.00002962  00000-0 -22911-4 0  9994,2 55955  69.9982 252.7694 0003232 267.5467  92.5358 15.69888837 16626,6737.352,91.726,361.395,357.04,0.0
55955.0,STARLINK-5878,PAYLOAD,2023-06-28 14:58:21,15.69908349,0.0003167,69.9982,251.8728,263.4776,96.6059,-8.9965e-06,-1.293e-05,0.0,0 STARLINK-5878,1 55955U 23037AT  23179.62385830 -.00001293  00000-0 -89965-5 0  9990,2 55955  69.9982 251.8728 0003167 263.4776  96.6059 15.69908349 16678,6737.296,91.725,361.295,357.028,0.0
55955.0,STARLINK-5878,PAYLOAD,2023-06-28 18:01:51,15.6991784,0.0002808,69.9979,251.515,271.4168,88.6706,-3.4439e-06,-6.26e-06,0.0,0 STARLINK-5878,1 55955U 23037AT  23179.75128706 -.00000626  00000-0 -34439-5 0  9996,2 55955  69.9979 251.5150 0002808 271.4168  88.6706 15.69917840 16693,6737.269,91.725,361.026,357.242,0.0
55955.0,STARLINK-5878,PAYLOAD,2023-06-29 07:47:35,15.6994183,0.0003107,69.9976,249.9015,256.722,103.363,3.2325e-05,3.678e-05,0.0,0 STARLINK-5878,1 55955U 23037AT  23180.32471131  .00003678  00000-0  32325-4 0  9993,2 55955  69.9976 249.9015 0003107 256.7220 103.3630 15.69941830 16786,6737.2,91.723,361.159,356.972,0.0
55955.0,STARLINK-5878,PAYLOAD,2023-06-29 16:58:07,15.6992151,0.0003045,69.9977,248.8267,266.3684,93.7164,1.209e-05,1.241e-05,0.0,0 STARLINK-5878,1 55955U 23037AT  23180.70702686  .00001241  00000-0  12090-4 0  9998,2 55955  69.9977 248.8267 0003045 266.3684  93.7164 15.69921510 16840,6737.259,91.724,361.175,357.072,0.0
55955.0,STARLINK-5878,PAYLOAD,2023-06-30 22:01:24,15.69919567,0.0003084,69.9968,245.4234,262.6532,97.4313,8.5176e-06,8.11e-06,0.0,0 STARLINK-5878,1 55955U 23037AT  23181.91765009  .00000811  00000-0  85176-5 0  9998,2 55955  69.9968 245.4234 0003084 262.6532  97.4313 15.69919567 17039,6737.264,91.724,361.207,357.051,0.0
55955.0,STARLINK-5878,PAYLOAD,2023-07-01 10:15:25,15.69932955,0.0003344,69.9968,243.9899,258.8636,101.2184,-1.9077e-05,-2.507e-05,0.0,0 STARLINK-5878,1 55955U 23037AT  23182.42737876 -.00002507  00000-0 -19077-4 0  9998,2 55955  69.9968 243.9899 0003344 258.8636 101.2184 15.69932955 17115,6737.226,91.724,361.344,356.838,0.0
55955.0,STARLINK-5878,PAYLOAD,2023-07-02 10:43:27,15.69923884,0.000323,69.9974,241.1234,267.1955,92.887,1.4121e-05,1.485e-05,0.0,0 STARLINK-5878,1 55955U 23037AT  23183.44684290  .00001485  00000-0  14121-4 0  9999,2 55955  69.9974 241.1234 0003230 267.1955  92.8870 15.69923884 17271,6737.252,91.724,361.293,356.941,0.0
55955.0,STARLINK-5878,PAYLOAD,2023-07-02 13:46:57,15.69919773,0.0003467,69.9952,240.7649,265.9648,94.1151,3.2165e-06,1.74e-06,0.0,0 STARLINK-5878,1 55955U 23037AT  23183.57428116  .00000174  00000-0  32165-5 0  9999,2 55955  69.9952 240.7649 0003467 265.9648  94.1151 15.69919773 17290,6737.264,91.724,361.464,356.793,0.0
55955.0,STARLINK-5878,PAYLOAD,2023-07-03 11:11:29,15.69927431,0.0003556,69.9972,238.2572,266.1177,93.9612,1.1297e-05,1.146e-05,0.0,0 STARLINK-5878,1 55955U 23037AT  23184.46630858  .00001146  00000-0  11297-4 0  9998,2 55955  69.9972 238.2572 0003556 266.1177  93.9612 15.69927431 17433,6737.242,91.724,361.502,356.711,0.0
55955.0,STARLINK-5878,PAYLOAD,2023-07-04 11:39:31,15.69928145,0.0002927,69.9988,235.3908,277.7309,82.3554,2.3666e-06,7.2e-07,0.0,0 STARLINK-5878,1 55955U 23037AT  23185.48577999  .00000072  00000-0  23666-5 0  9998,2 55955  69.9988 235.3908 0002927 277.7309  82.3554 15.69928145 17594,6737.24,91.724,361.077,357.133,0.0
55955.0,STARLINK-5878,PAYLOAD,2023-07-04 14:43:02,15.69913908,0.000315,69.999,235.0332,280.7661,79.318,-9.1409e-06,-1.311e-05,0.0,0 STARLINK-5878,1 55955U 23037AT  23185.61322489 -.00001311  00000-0 -91409-5 0  9994,2 55955  69.9990 235.0332 0003150 280.7661  79.3180 15.69913908 17614,6737.28,91.725,361.268,357.023,0.0
55955.0,STARLINK-5878,PAYLOAD,2023-07-04 16:14:47,15.69925215,0.0003081,69.9976,234.8536,275.6243,84.4602,-5.0787e-06,-8.23e-06,0.0,0 STARLINK-5878,1 55955U 23037AT  23185.67693321 -.00000823  00000-0 -50787-5 0  9997,2 55955  69.9976 234.8536 0003081 275.6243  84.4602 15.69925215 17624,6737.248,91.724,361.189,357.037,0.0
55955.0,STARLINK-5878,PAYLOAD,2023-07-05 06:00:36,15.69870712,0.000266,69.9986,233.243,228.1827,131.9142,-6.7038e-05,-8.246e-05,0.0,0 STARLINK-5878,1 55955U 23037AT  23186.25042704 -.00008246  00000-0 -67038-4 0  9998,2 55955  69.9986 233.2430 0002660 228.1827 131.9142 15.69870712 17712,6737.404,91.727,361.061,357.477,0.0
55955.0,STARLINK-5878,PAYLOAD,2023-07-05 12:07:33,15.69925049,0.0003221,69.9989,232.5265,268.8848,91.1979,-2.6499e-06,-5.31e-06,0.0,0 STARLINK-5878,1 55955U 23037AT  23186.50524990 -.00000531  00000-0 -26499-5 0  9994,2 55955  69.9989 232.5265 0003221 268.8848  91.1979 15.69925049 17754,6737.248,91.724,361.284,356.943,0.0
55955.0,STARLINK-5878,PAYLOAD,2023-07-06 04:56:54,15.69876585,0.0002272,69.9996,230.5577,248.2468,111.8486,-8.3205e-05,-0.00010183,0.0,0 STARLINK-5878,1 55955U 23037AT  23187.20618089 -.00010183  00000-0 -83205-4 0  9996,2 55955  69.9996 230.5577 0002272 248.2468 111.8486 15.69876585 17866,6737.387,91.727,360.783,357.721,0.0
55955.0,STARLINK-5878,PAYLOAD,2023-07-06 12:35:35,15.69926291,0.0002934,69.9997,229.6622,269.2349,90.851,8.926e-06,8.61e-06,0.0,0 STARLINK-5878,1 55955U 23037AT  23187.52471634  .00000861  00000-0  89260-5 0  9992,2 55955  69.9997 229.6622 0002934 269.2349  90.8510 15.69926291 17913,6737.245,91.724,361.087,357.133,0.0
55955.0,STARLINK-5878,PAYLOAD,2023-07-06 23:17:51,15.69915076,0.0003401,69.9985,228.4056,276.3442,83.7366,1.0071e-05,9.98e-06,0.0,0 STARLINK-5878,1 55955U 23037AT  23187.97073895  .00000998  00000-0  10071-4 0  9992,2 55955  69.9985 228.4056 0003401 276.3442  83.7366 15.69915076 17987,6737.277,91.725,361.433,356.851,0.0
55955.0,STARLINK-5878,PAYLOAD,2023-07-07 13:03:36,15.69934934,0.0003584,69.9985,226.7947,267.0102,93.0684,1.233e-05,1.271e-05,0.0,0 STARLINK-5878,1 55955U 23037AT  23188.54417547  .00001271  00000-0  12330-4 0  9997,2 55955  69.9985 226.7947 0003584 267.0102  93.0684 15.69934934 18071,6737.22,91.724,361.5,356.671,0.0
55955.0,STARLINK-5878,PAYLOAD,2023-07-07 22:14:08,15.69920638,0.0003279,69.9981,225.7208,260.7877,99.2948,2.7966e-06,1.23e-06,0.0,0 STARLINK-5878,1 55955U 23037AT  23188.92648679  .00000123  00000-0  27966-5 0  9998,2 55955  69.9981 225.7208 0003279 260.7877  99.2948 15.69920638 18130,6737.261,91.724,361.335,356.917,0.0
55955.0,STARLINK-5878,PAYLOAD,2023-07-09 03:17:26,15.69918118,0.0003675,69.9986,222.3144,266.5504,93.5271,3.509e-06,2.09e-06,0.0,0 STARLINK-5878,1 55955U 23037AT  23190.13710725  .00000209  00000-0  35090-5 0  9998,2 55955  69.9986 222.3144 0003675 266.5504  93.5271 15.69918118 18325,6737.268,91.725,361.609,356.657,0.0
55955.0,STARLINK-5878,PAYLOAD,2023-07-09 12:27:56,15.69927671,0.0003326,69.9996,221.2403,272.156,87.9255,2.9529e-07,-1.77e-06,0.0,0 STARLINK-5878,1 55955U 23037AT  23190.51940385 -.00000177  00000-0  29529-6 0  9993,2 55955  69.9996 221.2403 0003326 272.1560  87.9255 15.69927671 18389,6737.241,91.724,361.347,356.865,0.0
